{
  "type": "FeatureCollection",
  "features": [
    {
      "type": "Feature",
      "properties": {
        "name": "Los Angeles",
        "county": "Los Angeles",
        "color": "#ff007f",
        "lat": 34.0522,
        "lon": -118.2437
      },
      "geometry": {
        "type": "Polygon",
        "coordinates": [
          [
            [
              -118.3157,
              33.9922
            ],
            [
              -118.1717,
              33.9922
            ],
            [
              -118.1717,
              34.1122
            ],
            [
              -118.3157,
              34.1122
            ],
            [
              -118.3157,
              33.9922
            ]
          ]
        ]
      }
    },
    {
      "type": "Feature",
      "properties": {
        "name": "Long Beach",
        "county": "Los Angeles",
        "color": "#ff007f",
        "lat": 33.7701,
        "lon": -118.1937
      },
      "geometry": {
        "type": "Polygon",
        "coordinates": [
          [
            [
              -118.2657,
              33.7101
            ],
            [
              -118.1217,
              33.7101
            ],
            [
              -118.1217,
              33.8301
            ],
            [
              -118.2657,
              33.8301
            ],
            [
              -118.2657,
              33.7101
            ]
          ]
        ]
      }
    },
    {
      "type": "Feature",
      "properties": {
        "name": "Pasadena",
        "county": "Los Angeles",
        "color": "#ff007f",
        "lat": 34.1478,
        "lon": -118.1445
      },
      "geometry": {
        "type": "Polygon",
        "coordinates": [
          [
            [
              -118.2165,
              34.0878
            ],
            [
              -118.0725,
              34.0878
            ],
            [
              -118.0725,
              34.2078
            ],
            [
              -118.2165,
              34.2078
            ],
            [
              -118.2165,
              34.0878
            ]
          ]
        ]
      }
    },
    {
      "type": "Feature",
      "properties": {
        "name": "Glendale",
        "county": "Los Angeles",
        "color": "#ff007f",
        "lat": 34.1425,
        "lon": -118.2551
      },
      "geometry": {
        "type": "Polygon",
        "coordinates": [
          [
            [
              -118.3271,
              34.0825
            ],
            [
              -118.1831,
              34.0825
            ],
            [
              -118.1831,
              34.2025
            ],
            [
              -118.3271,
              34.2025
            ],
            [
              -118.3271,
              34.0825
            ]
          ]
        ]
      }
    },
    {
      "type": "Feature",
      "properties": {
        "name": "Santa Monica",
        "county": "Los Angeles",
        "color": "#ff007f",
        "lat": 34.0195,
        "lon": -118.4912
      },
      "geometry": {
        "type": "Polygon",
        "coordinates": [
          [
            [
              -118.5632,
              33.9595
            ],
            [
              -118.4192,
              33.9595
            ],
            [
              -118.4192,
              34.0795
            ],
            [
              -118.5632,
              34.0795
            ],
            [
              -118.5632,
              33.9595
            ]
          ]
        ]
      }
    },
    {
      "type": "Feature",
      "properties": {
        "name": "San Diego",
        "county": "San Diego",
        "color": "#ff007f",
        "lat": 32.7157,
        "lon": -117.1611
      },
      "geometry": {
        "type": "Polygon",
        "coordinates": [
          [
            [
              -117.2331,
              32.6557
            ],
            [
              -117.0891,
              32.6557
            ],
            [
              -117.0891,
              32.7757
            ],
            [
              -117.2331,
              32.7757
            ],
            [
              -117.2331,
              32.6557
            ]
          ]
        ]
      }
    },
    {
      "type": "Feature",
      "properties": {
        "name": "Chula Vista",
        "county": "San Diego",
        "color": "#ff007f",
        "lat": 32.6401,
        "lon": -117.0842
      },
      "geometry": {
        "type": "Polygon",
        "coordinates": [
          [
            [
              -117.1562,
              32.5801
            ],
            [
              -117.0122,
              32.5801
            ],
            [
              -117.0122,
              32.7001
            ],
            [
              -117.1562,
              32.7001
            ],
            [
              -117.1562,
              32.5801
            ]
          ]
        ]
      }
    },
    {
      "type": "Feature",
      "properties": {
        "name": "Oceanside",
        "county": "San Diego",
        "color": "#ff007f",
        "lat": 33.1959,
        "lon": -117.3795
      },
      "geometry": {
        "type": "Polygon",
        "coordinates": [
          [
            [
              -117.4515,
              33.1359
            ],
            [
              -117.3075,
              33.1359
            ],
            [
              -117.3075,
              33.2559
            ],
            [
              -117.4515,
              33.2559
            ],
            [
              -117.4515,
              33.1359
            ]
          ]
        ]
      }
    },
    {
      "type": "Feature",
      "properties": {
        "name": "Irvine",
        "county": "Orange",
        "color": "#ff007f",
        "lat": 33.6846,
        "lon": -117.8265
      },
      "geometry": {
        "type": "Polygon",
        "coordinates": [
          [
            [
              -117.8985,
              33.6246
            ],
            [
              -117.7545,
              33.6246
            ],
            [
              -117.7545,
              33.7446
            ],
            [
              -117.8985,
              33.7446
            ],
            [
              -117.8985,
              33.6246
            ]
          ]
        ]
      }
    },
    {
      "type": "Feature",
      "properties": {
        "name": "Anaheim",
        "county": "Orange",
        "color": "#ff007f",
        "lat": 33.8366,
        "lon": -117.9143
      },
      "geometry": {
        "type": "Polygon",
        "coordinates": [
          [
            [
              -117.9863,
              33.7766
            ],
            [
              -117.8423,
              33.7766
            ],
            [
              -117.8423,
              33.8966
            ],
            [
              -117.9863,
              33.8966
            ],
            [
              -117.9863,
              33.7766
            ]
          ]
        ]
      }
    },
    {
      "type": "Feature",
      "properties": {
        "name": "Santa Ana",
        "county": "Orange",
        "color": "#ff007f",
        "lat": 33.7455,
        "lon": -117.8677
      },
      "geometry": {
        "type": "Polygon",
        "coordinates": [
          [
            [
              -117.9397,
              33.6855
            ],
            [
              -117.7957,
              33.6855
            ],
            [
              -117.7957,
              33.8055
            ],
            [
              -117.9397,
              33.8055
            ],
            [
              -117.9397,
              33.6855
            ]
          ]
        ]
      }
    },
    {
      "type": "Feature",
      "properties": {
        "name": "San Jose",
        "county": "Santa Clara",
        "color": "#00f3ff",
        "lat": 37.3382,
        "lon": -121.8863
      },
      "geometry": {
        "type": "Polygon",
        "coordinates": [
          [
            [
              -121.9583,
              37.2782
            ],
            [
              -121.8143,
              37.2782
            ],
            [
              -121.8143,
              37.3982
            ],
            [
              -121.9583,
              37.3982
            ],
            [
              -121.9583,
              37.2782
            ]
          ]
        ]
      }
    },
    {
      "type": "Feature",
      "properties": {
        "name": "Sunnyvale",
        "county": "Santa Clara",
        "color": "#00f3ff",
        "lat": 37.3688,
        "lon": -122.0363
      },
      "geometry": {
        "type": "Polygon",
        "coordinates": [
          [
            [
              -122.1083,
              37.3088
            ],
            [
              -121.9643,
              37.3088
            ],
            [
              -121.9643,
              37.4288
            ],
            [
              -122.1083,
              37.4288
            ],
            [
              -122.1083,
              37.3088
            ]
          ]
        ]
      }
    },
    {
      "type": "Feature",
      "properties": {
        "name": "Palo Alto",
        "county": "Santa Clara",
        "color": "#00f3ff",
        "lat": 37.4419,
        "lon": -122.143
      },
      "geometry": {
        "type": "Polygon",
        "coordinates": [
          [
            [
              -122.215,
              37.3819
            ],
            [
              -122.071,
              37.3819
            ],
            [
              -122.071,
              37.5019
            ],
            [
              -122.215,
              37.5019
            ],
            [
              -122.215,
              37.3819
            ]
          ]
        ]
      }
    },
    {
      "type": "Feature",
      "properties": {
        "name": "Sacramento",
        "county": "Sacramento",
        "color": "#facc15",
        "lat": 38.5816,
        "lon": -121.4944
      },
      "geometry": {
        "type": "Polygon",
        "coordinates": [
          [
            [
              -121.5664,
              38.5216
            ],
            [
              -121.4224,
              38.5216
            ],
            [
              -121.4224,
              38.6416
            ],
            [
              -121.5664,
              38.6416
            ],
            [
              -121.5664,
              38.5216
            ]
          ]
        ]
      }
    },
    {
      "type": "Feature",
      "properties": {
        "name": "Elk Grove",
        "county": "Sacramento",
        "color": "#facc15",
        "lat": 38.4088,
        "lon": -121.3716
      },
      "geometry": {
        "type": "Polygon",
        "coordinates": [
          [
            [
              -121.4436,
              38.3488
            ],
            [
              -121.2996,
              38.3488
            ],
            [
              -121.2996,
              38.4688
            ],
            [
              -121.4436,
              38.4688
            ],
            [
              -121.4436,
              38.3488
            ]
          ]
        ]
      }
    },
    {
      "type": "Feature",
      "properties": {
        "name": "Fresno",
        "county": "Fresno",
        "color": "#fb923c",
        "lat": 36.7468,
        "lon": -119.7726
      },
      "geometry": {
        "type": "Polygon",
        "coordinates": [
          [
            [
              -119.8446,
              36.6868
            ],
            [
              -119.7006,
              36.6868
            ],
            [
              -119.7006,
              36.8068
            ],
            [
              -119.8446,
              36.8068
            ],
            [
              -119.8446,
              36.6868
            ]
          ]
        ]
      }
    },
    {
      "type": "Feature",
      "properties": {
        "name": "Clovis",
        "county": "Fresno",
        "color": "#fb923c",
        "lat": 36.8252,
        "lon": -119.7029
      },
      "geometry": {
        "type": "Polygon",
        "coordinates": [
          [
            [
              -119.7749,
              36.7652
            ],
            [
              -119.6309,
              36.7652
            ],
            [
              -119.6309,
              36.8852
            ],
            [
              -119.7749,
              36.8852
            ],
            [
              -119.7749,
              36.7652
            ]
          ]
        ]
      }
    },
    {
      "type": "Feature",
      "properties": {
        "name": "Redding",
        "county": "Shasta",
        "color": "#34d399",
        "lat": 40.5865,
        "lon": -122.3917
      },
      "geometry": {
        "type": "Polygon",
        "coordinates": [
          [
            [
              -122.4637,
              40.5265
            ],
            [
              -122.3197,
              40.5265
            ],
            [
              -122.3197,
              40.6465
            ],
            [
              -122.4637,
              40.6465
            ],
            [
              -122.4637,
              40.5265
            ]
          ]
        ]
      }
    },
    {
      "type": "Feature",
      "properties": {
        "name": "Anderson",
        "county": "Shasta",
        "color": "#34d399",
        "lat": 40.4482,
        "lon": -122.2978
      },
      "geometry": {
        "type": "Polygon",
        "coordinates": [
          [
            [
              -122.3698,
              40.3882
            ],
            [
              -122.2258,
              40.3882
            ],
            [
              -122.2258,
              40.5082
            ],
            [
              -122.3698,
              40.5082
            ],
            [
              -122.3698,
              40.3882
            ]
          ]
        ]
      }
    },
    {
      "type": "Feature",
      "properties": {
        "name": "Red Bluff",
        "county": "Tehama",
        "color": "#34d399",
        "lat": 40.1785,
        "lon": -122.2358
      },
      "geometry": {
        "type": "Polygon",
        "coordinates": [
          [
            [
              -122.3078,
              40.1185
            ],
            [
              -122.1638,
              40.1185
            ],
            [
              -122.1638,
              40.2385
            ],
            [
              -122.3078,
              40.2385
            ],
            [
              -122.3078,
              40.1185
            ]
          ]
        ]
      }
    },
    {
      "type": "Feature",
      "properties": {
        "name": "Corning",
        "county": "Tehama",
        "color": "#34d399",
        "lat": 39.9257,
        "lon": -122.1794
      },
      "geometry": {
        "type": "Polygon",
        "coordinates": [
          [
            [
              -122.2514,
              39.8657
            ],
            [
              -122.1074,
              39.8657
            ],
            [
              -122.1074,
              39.9857
            ],
            [
              -122.2514,
              39.9857
            ],
            [
              -122.2514,
              39.8657
            ]
          ]
        ]
      }
    },
    {
      "type": "Feature",
      "properties": {
        "name": "Bakersfield",
        "county": "Kern",
        "color": "#fb923c",
        "lat": 35.3733,
        "lon": -119.0187
      },
      "geometry": {
        "type": "Polygon",
        "coordinates": [
          [
            [
              -119.0907,
              35.3133
            ],
            [
              -118.9467,
              35.3133
            ],
            [
              -118.9467,
              35.4333
            ],
            [
              -119.0907,
              35.4333
            ],
            [
              -119.0907,
              35.3133
            ]
          ]
        ]
      }
    },
    {
      "type": "Feature",
      "properties": {
        "name": "San Francisco",
        "county": "San Francisco",
        "color": "#00f3ff",
        "lat": 37.7749,
        "lon": -122.4194
      },
      "geometry": {
        "type": "Polygon",
        "coordinates": [
          [
            [
              -122.4914,
              37.7149
            ],
            [
              -122.3474,
              37.7149
            ],
            [
              -122.3474,
              37.8349
            ],
            [
              -122.4914,
              37.8349
            ],
            [
              -122.4914,
              37.7149
            ]
          ]
        ]
      }
    },
    {
      "type": "Feature",
      "properties": {
        "name": "Oakland",
        "county": "Alameda",
        "color": "#00f3ff",
        "lat": 37.8044,
        "lon": -122.2712
      },
      "geometry": {
        "type": "Polygon",
        "coordinates": [
          [
            [
              -122.3432,
              37.7444
            ],
            [
              -122.1992,
              37.7444
            ],
            [
              -122.1992,
              37.8644
            ],
            [
              -122.3432,
              37.8644
            ],
            [
              -122.3432,
              37.7444
            ]
          ]
        ]
      }
    },
    {
      "type": "Feature",
      "properties": {
        "name": "Berkeley",
        "county": "Alameda",
        "color": "#00f3ff",
        "lat": 37.8715,
        "lon": -122.273
      },
      "geometry": {
        "type": "Polygon",
        "coordinates": [
          [
            [
              -122.345,
              37.8115
            ],
            [
              -122.201,
              37.8115
            ],
            [
              -122.201,
              37.9315
            ],
            [
              -122.345,
              37.9315
            ],
            [
              -122.345,
              37.8115
            ]
          ]
        ]
      }
    },
    {
      "type": "Feature",
      "properties": {
        "name": "City of Alpine",
        "county": "Alpine",
        "color": "#a855f7",
        "lat": 38.5968,
        "lon": -119.8207
      },
      "geometry": {
        "type": "Polygon",
        "coordinates": [
          [
            [
              -119.8927,
              38.5368
            ],
            [
              -119.7487,
              38.5368
            ],
            [
              -119.7487,
              38.6568
            ],
            [
              -119.8927,
              38.6568
            ],
            [
              -119.8927,
              38.5368
            ]
          ]
        ]
      }
    },
    {
      "type": "Feature",
      "properties": {
        "name": "City of Amador",
        "county": "Amador",
        "color": "#a855f7",
        "lat": 38.4458,
        "lon": -120.6523
      },
      "geometry": {
        "type": "Polygon",
        "coordinates": [
          [
            [
              -120.7243,
              38.3858
            ],
            [
              -120.5803,
              38.3858
            ],
            [
              -120.5803,
              38.5058
            ],
            [
              -120.7243,
              38.5058
            ],
            [
              -120.7243,
              38.3858
            ]
          ]
        ]
      }
    },
    {
      "type": "Feature",
      "properties": {
        "name": "City of Butte",
        "county": "Butte",
        "color": "#34d399",
        "lat": 39.6672,
        "lon": -121.6008
      },
      "geometry": {
        "type": "Polygon",
        "coordinates": [
          [
            [
              -121.6728,
              39.6072
            ],
            [
              -121.5288,
              39.6072
            ],
            [
              -121.5288,
              39.7272
            ],
            [
              -121.6728,
              39.7272
            ],
            [
              -121.6728,
              39.6072
            ]
          ]
        ]
      }
    },
    {
      "type": "Feature",
      "properties": {
        "name": "City of Calaveras",
        "county": "Calaveras",
        "color": "#a855f7",
        "lat": 38.2046,
        "lon": -120.5541
      },
      "geometry": {
        "type": "Polygon",
        "coordinates": [
          [
            [
              -120.6261,
              38.1446
            ],
            [
              -120.4821,
              38.1446
            ],
            [
              -120.4821,
              38.2646
            ],
            [
              -120.6261,
              38.2646
            ],
            [
              -120.6261,
              38.1446
            ]
          ]
        ]
      }
    },
    {
      "type": "Feature",
      "properties": {
        "name": "City of Colusa",
        "county": "Colusa",
        "color": "#facc15",
        "lat": 39.1776,
        "lon": -122.237
      },
      "geometry": {
        "type": "Polygon",
        "coordinates": [
          [
            [
              -122.309,
              39.1176
            ],
            [
              -122.165,
              39.1176
            ],
            [
              -122.165,
              39.2376
            ],
            [
              -122.309,
              39.2376
            ],
            [
              -122.309,
              39.1176
            ]
          ]
        ]
      }
    },
    {
      "type": "Feature",
      "properties": {
        "name": "City of Contra Costa",
        "county": "Contra Costa",
        "color": "#00f3ff",
        "lat": 37.9192,
        "lon": -121.9278
      },
      "geometry": {
        "type": "Polygon",
        "coordinates": [
          [
            [
              -121.9998,
              37.8592
            ],
            [
              -121.8558,
              37.8592
            ],
            [
              -121.8558,
              37.9792
            ],
            [
              -121.9998,
              37.9792
            ],
            [
              -121.9998,
              37.8592
            ]
          ]
        ]
      }
    },
    {
      "type": "Feature",
      "properties": {
        "name": "City of Del Norte",
        "county": "Del Norte",
        "color": "#34d399",
        "lat": 41.7433,
        "lon": -123.8972
      },
      "geometry": {
        "type": "Polygon",
        "coordinates": [
          [
            [
              -123.9692,
              41.6833
            ],
            [
              -123.8252,
              41.6833
            ],
            [
              -123.8252,
              41.8033
            ],
            [
              -123.9692,
              41.8033
            ],
            [
              -123.9692,
              41.6833
            ]
          ]
        ]
      }
    },
    {
      "type": "Feature",
      "properties": {
        "name": "City of El Dorado",
        "county": "El Dorado",
        "color": "#a855f7",
        "lat": 38.7787,
        "lon": -120.5233
      },
      "geometry": {
        "type": "Polygon",
        "coordinates": [
          [
            [
              -120.5953,
              38.7187
            ],
            [
              -120.4513,
              38.7187
            ],
            [
              -120.4513,
              38.8387
            ],
            [
              -120.5953,
              38.8387
            ],
            [
              -120.5953,
              38.7187
            ]
          ]
        ]
      }
    },
    {
      "type": "Feature",
      "properties": {
        "name": "City of Glenn",
        "county": "Glenn",
        "color": "#facc15",
        "lat": 39.5987,
        "lon": -122.3922
      },
      "geometry": {
        "type": "Polygon",
        "coordinates": [
          [
            [
              -122.4642,
              39.5387
            ],
            [
              -122.3202,
              39.5387
            ],
            [
              -122.3202,
              39.6587
            ],
            [
              -122.4642,
              39.6587
            ],
            [
              -122.4642,
              39.5387
            ]
          ]
        ]
      }
    },
    {
      "type": "Feature",
      "properties": {
        "name": "City of Humboldt",
        "county": "Humboldt",
        "color": "#34d399",
        "lat": 40.6993,
        "lon": -123.876
      },
      "geometry": {
        "type": "Polygon",
        "coordinates": [
          [
            [
              -123.948,
              40.6393
            ],
            [
              -123.804,
              40.6393
            ],
            [
              -123.804,
              40.7593
            ],
            [
              -123.948,
              40.7593
            ],
            [
              -123.948,
              40.6393
            ]
          ]
        ]
      }
    },
    {
      "type": "Feature",
      "properties": {
        "name": "City of Imperial",
        "county": "Imperial",
        "color": "#ff007f",
        "lat": 33.0393,
        "lon": -115.3666
      },
      "geometry": {
        "type": "Polygon",
        "coordinates": [
          [
            [
              -115.4386,
              32.9793
            ],
            [
              -115.2946,
              32.9793
            ],
            [
              -115.2946,
              33.0993
            ],
            [
              -115.4386,
              33.0993
            ],
            [
              -115.4386,
              32.9793
            ]
          ]
        ]
      }
    },
    {
      "type": "Feature",
      "properties": {
        "name": "City of Inyo",
        "county": "Inyo",
        "color": "#ec4899",
        "lat": 36.5111,
        "lon": -117.4108
      },
      "geometry": {
        "type": "Polygon",
        "coordinates": [
          [
            [
              -117.4828,
              36.4511
            ],
            [
              -117.3388,
              36.4511
            ],
            [
              -117.3388,
              36.5711
            ],
            [
              -117.4828,
              36.5711
            ],
            [
              -117.4828,
              36.4511
            ]
          ]
        ]
      }
    },
    {
      "type": "Feature",
      "properties": {
        "name": "City of Kings",
        "county": "Kings",
        "color": "#fb923c",
        "lat": 36.0754,
        "lon": -119.8155
      },
      "geometry": {
        "type": "Polygon",
        "coordinates": [
          [
            [
              -119.8875,
              36.0154
            ],
            [
              -119.7435,
              36.0154
            ],
            [
              -119.7435,
              36.1354
            ],
            [
              -119.8875,
              36.1354
            ],
            [
              -119.8875,
              36.0154
            ]
          ]
        ]
      }
    },
    {
      "type": "Feature",
      "properties": {
        "name": "City of Lake",
        "county": "Lake",
        "color": "#34d399",
        "lat": 39.0996,
        "lon": -122.7532
      },
      "geometry": {
        "type": "Polygon",
        "coordinates": [
          [
            [
              -122.8252,
              39.0396
            ],
            [
              -122.6812,
              39.0396
            ],
            [
              -122.6812,
              39.1596
            ],
            [
              -122.8252,
              39.1596
            ],
            [
              -122.8252,
              39.0396
            ]
          ]
        ]
      }
    },
    {
      "type": "Feature",
      "properties": {
        "name": "City of Lassen",
        "county": "Lassen",
        "color": "#34d399",
        "lat": 40.6736,
        "lon": -120.5959
      },
      "geometry": {
        "type": "Polygon",
        "coordinates": [
          [
            [
              -120.6679,
              40.6136
            ],
            [
              -120.5239,
              40.6136
            ],
            [
              -120.5239,
              40.7336
            ],
            [
              -120.6679,
              40.7336
            ],
            [
              -120.6679,
              40.6136
            ]
          ]
        ]
      }
    },
    {
      "type": "Feature",
      "properties": {
        "name": "City of Madera",
        "county": "Madera",
        "color": "#fb923c",
        "lat": 37.218,
        "lon": -119.7627
      },
      "geometry": {
        "type": "Polygon",
        "coordinates": [
          [
            [
              -119.8347,
              37.158
            ],
            [
              -119.6907,
              37.158
            ],
            [
              -119.6907,
              37.278
            ],
            [
              -119.8347,
              37.278
            ],
            [
              -119.8347,
              37.158
            ]
          ]
        ]
      }
    },
    {
      "type": "Feature",
      "properties": {
        "name": "City of Marin",
        "county": "Marin",
        "color": "#00f3ff",
        "lat": 38.0718,
        "lon": -122.6972
      },
      "geometry": {
        "type": "Polygon",
        "coordinates": [
          [
            [
              -122.7692,
              38.0118
            ],
            [
              -122.6252,
              38.0118
            ],
            [
              -122.6252,
              38.1318
            ],
            [
              -122.7692,
              38.1318
            ],
            [
              -122.7692,
              38.0118
            ]
          ]
        ]
      }
    },
    {
      "type": "Feature",
      "properties": {
        "name": "City of Mariposa",
        "county": "Mariposa",
        "color": "#a855f7",
        "lat": 37.4938,
        "lon": -119.9664
      },
      "geometry": {
        "type": "Polygon",
        "coordinates": [
          [
            [
              -120.0384,
              37.4338
            ],
            [
              -119.8944,
              37.4338
            ],
            [
              -119.8944,
              37.5538
            ],
            [
              -120.0384,
              37.5538
            ],
            [
              -120.0384,
              37.4338
            ]
          ]
        ]
      }
    },
    {
      "type": "Feature",
      "properties": {
        "name": "City of Mendocino",
        "county": "Mendocino",
        "color": "#34d399",
        "lat": 39.4381,
        "lon": -123.3908
      },
      "geometry": {
        "type": "Polygon",
        "coordinates": [
          [
            [
              -123.4628,
              39.3781
            ],
            [
              -123.3188,
              39.3781
            ],
            [
              -123.3188,
              39.4981
            ],
            [
              -123.4628,
              39.4981
            ],
            [
              -123.4628,
              39.3781
            ]
          ]
        ]
      }
    },
    {
      "type": "Feature",
      "properties": {
        "name": "City of Merced",
        "county": "Merced",
        "color": "#fb923c",
        "lat": 37.1917,
        "lon": -120.7183
      },
      "geometry": {
        "type": "Polygon",
        "coordinates": [
          [
            [
              -120.7903,
              37.1317
            ],
            [
              -120.6463,
              37.1317
            ],
            [
              -120.6463,
              37.2517
            ],
            [
              -120.7903,
              37.2517
            ],
            [
              -120.7903,
              37.1317
            ]
          ]
        ]
      }
    },
    {
      "type": "Feature",
      "properties": {
        "name": "City of Modoc",
        "county": "Modoc",
        "color": "#34d399",
        "lat": 41.5898,
        "lon": -120.7249
      },
      "geometry": {
        "type": "Polygon",
        "coordinates": [
          [
            [
              -120.7969,
              41.5298
            ],
            [
              -120.6529,
              41.5298
            ],
            [
              -120.6529,
              41.6498
            ],
            [
              -120.7969,
              41.6498
            ],
            [
              -120.7969,
              41.5298
            ]
          ]
        ]
      }
    },
    {
      "type": "Feature",
      "properties": {
        "name": "City of Mono",
        "county": "Mono",
        "color": "#ec4899",
        "lat": 37.939,
        "lon": -118.887
      },
      "geometry": {
        "type": "Polygon",
        "coordinates": [
          [
            [
              -118.959,
              37.879
            ],
            [
              -118.815,
              37.879
            ],
            [
              -118.815,
              37.999
            ],
            [
              -118.959,
              37.999
            ],
            [
              -118.959,
              37.879
            ]
          ]
        ]
      }
    },
    {
      "type": "Feature",
      "properties": {
        "name": "City of Monterey",
        "county": "Monterey",
        "color": "#38bdf8",
        "lat": 36.3136,
        "lon": -121.3524
      },
      "geometry": {
        "type": "Polygon",
        "coordinates": [
          [
            [
              -121.4244,
              36.2536
            ],
            [
              -121.2804,
              36.2536
            ],
            [
              -121.2804,
              36.3736
            ],
            [
              -121.4244,
              36.3736
            ],
            [
              -121.4244,
              36.2536
            ]
          ]
        ]
      }
    },
    {
      "type": "Feature",
      "properties": {
        "name": "City of Napa",
        "county": "Napa",
        "color": "#00f3ff",
        "lat": 38.5072,
        "lon": -122.3283
      },
      "geometry": {
        "type": "Polygon",
        "coordinates": [
          [
            [
              -122.4003,
              38.4472
            ],
            [
              -122.2563,
              38.4472
            ],
            [
              -122.2563,
              38.5672
            ],
            [
              -122.4003,
              38.5672
            ],
            [
              -122.4003,
              38.4472
            ]
          ]
        ]
      }
    },
    {
      "type": "Feature",
      "properties": {
        "name": "City of Nevada",
        "county": "Nevada",
        "color": "#a855f7",
        "lat": 39.3014,
        "lon": -120.7686
      },
      "geometry": {
        "type": "Polygon",
        "coordinates": [
          [
            [
              -120.8406,
              39.2414
            ],
            [
              -120.6966,
              39.2414
            ],
            [
              -120.6966,
              39.3614
            ],
            [
              -120.8406,
              39.3614
            ],
            [
              -120.8406,
              39.2414
            ]
          ]
        ]
      }
    },
    {
      "type": "Feature",
      "properties": {
        "name": "City of Placer",
        "county": "Placer",
        "color": "#a855f7",
        "lat": 39.0634,
        "lon": -120.7177
      },
      "geometry": {
        "type": "Polygon",
        "coordinates": [
          [
            [
              -120.7897,
              39.0034
            ],
            [
              -120.6457,
              39.0034
            ],
            [
              -120.6457,
              39.1234
            ],
            [
              -120.7897,
              39.1234
            ],
            [
              -120.7897,
              39.0034
            ]
          ]
        ]
      }
    },
    {
      "type": "Feature",
      "properties": {
        "name": "City of Plumas",
        "county": "Plumas",
        "color": "#34d399",
        "lat": 39.9928,
        "lon": -120.8268
      },
      "geometry": {
        "type": "Polygon",
        "coordinates": [
          [
            [
              -120.8988,
              39.9328
            ],
            [
              -120.7548,
              39.9328
            ],
            [
              -120.7548,
              40.0528
            ],
            [
              -120.8988,
              40.0528
            ],
            [
              -120.8988,
              39.9328
            ]
          ]
        ]
      }
    },
    {
      "type": "Feature",
      "properties": {
        "name": "City of Riverside",
        "county": "Riverside",
        "color": "#ff007f",
        "lat": 33.7432,
        "lon": -115.9938
      },
      "geometry": {
        "type": "Polygon",
        "coordinates": [
          [
            [
              -116.0658,
              33.6832
            ],
            [
              -115.9218,
              33.6832
            ],
            [
              -115.9218,
              33.8032
            ],
            [
              -116.0658,
              33.8032
            ],
            [
              -116.0658,
              33.6832
            ]
          ]
        ]
      }
    },
    {
      "type": "Feature",
      "properties": {
        "name": "City of San Benito",
        "county": "San Benito",
        "color": "#38bdf8",
        "lat": 36.6032,
        "lon": -121.074
      },
      "geometry": {
        "type": "Polygon",
        "coordinates": [
          [
            [
              -121.146,
              36.5432
            ],
            [
              -121.002,
              36.5432
            ],
            [
              -121.002,
              36.6632
            ],
            [
              -121.146,
              36.6632
            ],
            [
              -121.146,
              36.5432
            ]
          ]
        ]
      }
    },
    {
      "type": "Feature",
      "properties": {
        "name": "City of San Bernardino",
        "county": "San Bernardino",
        "color": "#ff007f",
        "lat": 34.8405,
        "lon": -116.1785
      },
      "geometry": {
        "type": "Polygon",
        "coordinates": [
          [
            [
              -116.2505,
              34.7805
            ],
            [
              -116.1065,
              34.7805
            ],
            [
              -116.1065,
              34.9005
            ],
            [
              -116.2505,
              34.9005
            ],
            [
              -116.2505,
              34.7805
            ]
          ]
        ]
      }
    },
    {
      "type": "Feature",
      "properties": {
        "name": "City of San Joaquin",
        "county": "San Joaquin",
        "color": "#fb923c",
        "lat": 37.9358,
        "lon": -121.2722
      },
      "geometry": {
        "type": "Polygon",
        "coordinates": [
          [
            [
              -121.3442,
              37.8758
            ],
            [
              -121.2002,
              37.8758
            ],
            [
              -121.2002,
              37.9958
            ],
            [
              -121.3442,
              37.9958
            ],
            [
              -121.3442,
              37.8758
            ]
          ]
        ]
      }
    },
    {
      "type": "Feature",
      "properties": {
        "name": "City of San Luis Obispo",
        "county": "San Luis Obispo",
        "color": "#38bdf8",
        "lat": 35.3102,
        "lon": -120.5233
      },
      "geometry": {
        "type": "Polygon",
        "coordinates": [
          [
            [
              -120.5953,
              35.2502
            ],
            [
              -120.4513,
              35.2502
            ],
            [
              -120.4513,
              35.3702
            ],
            [
              -120.5953,
              35.3702
            ],
            [
              -120.5953,
              35.2502
            ]
          ]
        ]
      }
    },
    {
      "type": "Feature",
      "properties": {
        "name": "City of San Mateo",
        "county": "San Mateo",
        "color": "#00f3ff",
        "lat": 37.4337,
        "lon": -122.3131
      },
      "geometry": {
        "type": "Polygon",
        "coordinates": [
          [
            [
              -122.3851,
              37.3737
            ],
            [
              -122.2411,
              37.3737
            ],
            [
              -122.2411,
              37.4937
            ],
            [
              -122.3851,
              37.4937
            ],
            [
              -122.3851,
              37.3737
            ]
          ]
        ]
      }
    },
    {
      "type": "Feature",
      "properties": {
        "name": "City of Santa Barbara",
        "county": "Santa Barbara",
        "color": "#38bdf8",
        "lat": 34.6593,
        "lon": -120.0886
      },
      "geometry": {
        "type": "Polygon",
        "coordinates": [
          [
            [
              -120.1606,
              34.5993
            ],
            [
              -120.0166,
              34.5993
            ],
            [
              -120.0166,
              34.7193
            ],
            [
              -120.1606,
              34.7193
            ],
            [
              -120.1606,
              34.5993
            ]
          ]
        ]
      }
    },
    {
      "type": "Feature",
      "properties": {
        "name": "City of Santa Cruz",
        "county": "Santa Cruz",
        "color": "#38bdf8",
        "lat": 37.0558,
        "lon": -121.9926
      },
      "geometry": {
        "type": "Polygon",
        "coordinates": [
          [
            [
              -122.0646,
              36.9958
            ],
            [
              -121.9206,
              36.9958
            ],
            [
              -121.9206,
              37.1158
            ],
            [
              -122.0646,
              37.1158
            ],
            [
              -122.0646,
              36.9958
            ]
          ]
        ]
      }
    },
    {
      "type": "Feature",
      "properties": {
        "name": "City of Sierra",
        "county": "Sierra",
        "color": "#a855f7",
        "lat": 39.5772,
        "lon": -120.5202
      },
      "geometry": {
        "type": "Polygon",
        "coordinates": [
          [
            [
              -120.5922,
              39.5172
            ],
            [
              -120.4482,
              39.5172
            ],
            [
              -120.4482,
              39.6372
            ],
            [
              -120.5922,
              39.6372
            ],
            [
              -120.5922,
              39.5172
            ]
          ]
        ]
      }
    },
    {
      "type": "Feature",
      "properties": {
        "name": "City of Siskiyou",
        "county": "Siskiyou",
        "color": "#34d399",
        "lat": 41.594,
        "lon": -122.5401
      },
      "geometry": {
        "type": "Polygon",
        "coordinates": [
          [
            [
              -122.6121,
              41.534
            ],
            [
              -122.4681,
              41.534
            ],
            [
              -122.4681,
              41.654
            ],
            [
              -122.6121,
              41.654
            ],
            [
              -122.6121,
              41.534
            ]
          ]
        ]
      }
    },
    {
      "type": "Feature",
      "properties": {
        "name": "City of Solano",
        "county": "Solano",
        "color": "#00f3ff",
        "lat": 38.27,
        "lon": -121.9326
      },
      "geometry": {
        "type": "Polygon",
        "coordinates": [
          [
            [
              -122.0046,
              38.21
            ],
            [
              -121.8606,
              38.21
            ],
            [
              -121.8606,
              38.33
            ],
            [
              -122.0046,
              38.33
            ],
            [
              -122.0046,
              38.21
            ]
          ]
        ]
      }
    },
    {
      "type": "Feature",
      "properties": {
        "name": "City of Sonoma",
        "county": "Sonoma",
        "color": "#00f3ff",
        "lat": 38.5346,
        "lon": -122.9234
      },
      "geometry": {
        "type": "Polygon",
        "coordinates": [
          [
            [
              -122.9954,
              38.4746
            ],
            [
              -122.8514,
              38.4746
            ],
            [
              -122.8514,
              38.5946
            ],
            [
              -122.9954,
              38.5946
            ],
            [
              -122.9954,
              38.4746
            ]
          ]
        ]
      }
    },
    {
      "type": "Feature",
      "properties": {
        "name": "City of Stanislaus",
        "county": "Stanislaus",
        "color": "#fb923c",
        "lat": 37.5091,
        "lon": -120.9876
      },
      "geometry": {
        "type": "Polygon",
        "coordinates": [
          [
            [
              -121.0596,
              37.4491
            ],
            [
              -120.9156,
              37.4491
            ],
            [
              -120.9156,
              37.5691
            ],
            [
              -121.0596,
              37.5691
            ],
            [
              -121.0596,
              37.4491
            ]
          ]
        ]
      }
    },
    {
      "type": "Feature",
      "properties": {
        "name": "City of Sutter",
        "county": "Sutter",
        "color": "#facc15",
        "lat": 39.0346,
        "lon": -121.6946
      },
      "geometry": {
        "type": "Polygon",
        "coordinates": [
          [
            [
              -121.7666,
              38.9746
            ],
            [
              -121.6226,
              38.9746
            ],
            [
              -121.6226,
              39.0946
            ],
            [
              -121.7666,
              39.0946
            ],
            [
              -121.7666,
              38.9746
            ]
          ]
        ]
      }
    },
    {
      "type": "Feature",
      "properties": {
        "name": "City of Trinity",
        "county": "Trinity",
        "color": "#34d399",
        "lat": 40.6517,
        "lon": -123.1147
      },
      "geometry": {
        "type": "Polygon",
        "coordinates": [
          [
            [
              -123.1867,
              40.5917
            ],
            [
              -123.0427,
              40.5917
            ],
            [
              -123.0427,
              40.7117
            ],
            [
              -123.1867,
              40.7117
            ],
            [
              -123.1867,
              40.5917
            ]
          ]
        ]
      }
    },
    {
      "type": "Feature",
      "properties": {
        "name": "City of Tulare",
        "county": "Tulare",
        "color": "#fb923c",
        "lat": 36.2202,
        "lon": -118.8023
      },
      "geometry": {
        "type": "Polygon",
        "coordinates": [
          [
            [
              -118.8743,
              36.1602
            ],
            [
              -118.7303,
              36.1602
            ],
            [
              -118.7303,
              36.2802
            ],
            [
              -118.8743,
              36.2802
            ],
            [
              -118.8743,
              36.1602
            ]
          ]
        ]
      }
    },
    {
      "type": "Feature",
      "properties": {
        "name": "City of Tuolumne",
        "county": "Tuolumne",
        "color": "#a855f7",
        "lat": 37.9942,
        "lon": -119.936
      },
      "geometry": {
        "type": "Polygon",
        "coordinates": [
          [
            [
              -120.008,
              37.9342
            ],
            [
              -119.864,
              37.9342
            ],
            [
              -119.864,
              38.0542
            ],
            [
              -120.008,
              38.0542
            ],
            [
              -120.008,
              37.9342
            ]
          ]
        ]
      }
    },
    {
      "type": "Feature",
      "properties": {
        "name": "City of Ventura",
        "county": "Ventura",
        "color": "#ff007f",
        "lat": 34.3705,
        "lon": -119.1391
      },
      "geometry": {
        "type": "Polygon",
        "coordinates": [
          [
            [
              -119.2111,
              34.3105
            ],
            [
              -119.0671,
              34.3105
            ],
            [
              -119.0671,
              34.4305
            ],
            [
              -119.2111,
              34.4305
            ],
            [
              -119.2111,
              34.3105
            ]
          ]
        ]
      }
    },
    {
      "type": "Feature",
      "properties": {
        "name": "City of Yolo",
        "county": "Yolo",
        "color": "#facc15",
        "lat": 38.682,
        "lon": -121.9018
      },
      "geometry": {
        "type": "Polygon",
        "coordinates": [
          [
            [
              -121.9738,
              38.622
            ],
            [
              -121.8298,
              38.622
            ],
            [
              -121.8298,
              38.742
            ],
            [
              -121.9738,
              38.742
            ],
            [
              -121.9738,
              38.622
            ]
          ]
        ]
      }
    },
    {
      "type": "Feature",
      "properties": {
        "name": "City of Yuba",
        "county": "Yuba",
        "color": "#facc15",
        "lat": 39.2673,
        "lon": -121.3514
      },
      "geometry": {
        "type": "Polygon",
        "coordinates": [
          [
            [
              -121.4234,
              39.2073
            ],
            [
              -121.2794,
              39.2073
            ],
            [
              -121.2794,
              39.3273
            ],
            [
              -121.4234,
              39.3273
            ],
            [
              -121.4234,
              39.2073
            ]
          ]
        ]
      }
    }
  ]
}